STARLINK-30864          
1 58243U 23171P   23325.16667824 -.01559119  00000+0 -11814-1 0  9999
2 58243  43.0013 180.8939 0001564 281.9018 133.5992 15.74148713  3194
STARLINK-30854          
1 58244U 23171Q   23325.16667824 -.01578528  00000+0 -11969-1 0  9996
2 58244  43.0013 180.8957 0001767 275.2158 139.6517 15.74165423  3312
STARLINK-30849          
1 58245U 23171R   23325.16667824 -.01590287  00000+0 -12066-1 0  9992
2 58245  43.0013 180.8924 0001729 272.5365 143.5768 15.74171602  3302
STARLINK-30886          
1 58246U 23171S   23325.16667824 -.01629790  00000+0 -12384-1 0  9998
2 58246  43.0013 180.8891 0002210 286.0230 131.3205 15.74201988  3305
STARLINK-30850          
1 58247U 23171T   23325.16667824 -.01414394  00000+0 -10855-1 0  9992
2 58247  43.0013 180.8905 0001962 258.7746 158.0457 15.74037657  3139
STARLINK-30823          
1 58248U 23171U   23325.16667824 -.01413633  00000+0 -10853-1 0  9996
2 58248  43.0012 180.8876 0001880 258.4934 159.5850 15.74028907  3301
STARLINK-30873          
1 58249U 23171V   23325.16667824 -.01439310  00000+0 -11064-1 0  9992
2 58249  43.0013 180.8860 0001831 262.4094 156.2735 15.74054723  3305
STARLINK-30808          
1 58250U 23171W   23324.91667824 -.01029186  00000+0 -72269-2 0  9997
2 58250  43.0023 182.2245 0001701 281.6071 229.1773 15.75644832  3270
