{
	"ndm": {
		"omm": [
			{
				"header": {
					"CREATION_DATE": "",
					"ORIGINATOR": ""
				},
				"body": {
					"segment": {
						"metadata": {
							"OBJECT_NAME": "STARLINK-30864",
							"OBJECT_ID": "2023-171P",
							"CENTER_NAME": "EARTH",
							"REF_FRAME": "TEME",
							"TIME_SYSTEM": "UTC",
							"MEAN_ELEMENT_THEORY": "SGP4"
						},
						"data": {
							"meanElements": {
								"EPOCH": "2023-11-21T04:00:00.999936",
								"MEAN_MOTION": 15.74148713,
								"ECCENTRICITY": 0.0001564,
								"INCLINATION": 43.0013,
								"RA_OF_ASC_NODE": 180.8939,
								"ARG_OF_PERICENTER": 281.9018,
								"MEAN_ANOMALY": 133.5992
							},
							"tleParameters": {
								"EPHEMERIS_TYPE": 0,
								"CLASSIFICATION_TYPE": "U",
								"NORAD_CAT_ID": 58243,
								"ELEMENT_SET_NO": 999,
								"REV_AT_EPOCH": 319,
								"BSTAR": -0.011814,
								"MEAN_MOTION_DOT": -0.01559119,
								"MEAN_MOTION_DDOT": 0
							}
						}
					}
				}
			},
			{
				"header": {
					"CREATION_DATE": "",
					"ORIGINATOR": ""
				},
				"body": {
					"segment": {
						"metadata": {
							"OBJECT_NAME": "STARLINK-30854",
							"OBJECT_ID": "2023-171Q",
							"CENTER_NAME": "EARTH",
							"REF_FRAME": "TEME",
							"TIME_SYSTEM": "UTC",
							"MEAN_ELEMENT_THEORY": "SGP4"
						},
						"data": {
							"meanElements": {
								"EPOCH": "2023-11-21T04:00:00.999936",
								"MEAN_MOTION": 15.74165423,
								"ECCENTRICITY": 0.0001767,
								"INCLINATION": 43.0013,
								"RA_OF_ASC_NODE": 180.8957,
								"ARG_OF_PERICENTER": 275.2158,
								"MEAN_ANOMALY": 139.6517
							},
							"tleParameters": {
								"EPHEMERIS_TYPE": 0,
								"CLASSIFICATION_TYPE": "U",
								"NORAD_CAT_ID": 58244,
								"ELEMENT_SET_NO": 999,
								"REV_AT_EPOCH": 331,
								"BSTAR": -0.011969,
								"MEAN_MOTION_DOT": -0.01578528,
								"MEAN_MOTION_DDOT": 0
							}
						}
					}
				}
			},
			{
				"header": {
					"CREATION_DATE": "",
					"ORIGINATOR": ""
				},
				"body": {
					"segment": {
						"metadata": {
							"OBJECT_NAME": "STARLINK-30849",
							"OBJECT_ID": "2023-171R",
							"CENTER_NAME": "EARTH",
							"REF_FRAME": "TEME",
							"TIME_SYSTEM": "UTC",
							"MEAN_ELEMENT_THEORY": "SGP4"
						},
						"data": {
							"meanElements": {
								"EPOCH": "2023-11-21T04:00:00.999936",
								"MEAN_MOTION": 15.74171602,
								"ECCENTRICITY": 0.0001729,
								"INCLINATION": 43.0013,
								"RA_OF_ASC_NODE": 180.8924,
								"ARG_OF_PERICENTER": 272.5365,
								"MEAN_ANOMALY": 143.5768
							},
							"tleParameters": {
								"EPHEMERIS_TYPE": 0,
								"CLASSIFICATION_TYPE": "U",
								"NORAD_CAT_ID": 58245,
								"ELEMENT_SET_NO": 999,
								"REV_AT_EPOCH": 330,
								"BSTAR": -0.012066,
								"MEAN_MOTION_DOT": -0.01590287,
								"MEAN_MOTION_DDOT": 0
							}
						}
					}
				}
			},
			{
				"header": {
					"CREATION_DATE": "",
					"ORIGINATOR": ""
				},
				"body": {
					"segment": {
						"metadata": {
							"OBJECT_NAME": "STARLINK-30886",
							"OBJECT_ID": "2023-171S",
							"CENTER_NAME": "EARTH",
							"REF_FRAME": "TEME",
							"TIME_SYSTEM": "UTC",
							"MEAN_ELEMENT_THEORY": "SGP4"
						},
						"data": {
							"meanElements": {
								"EPOCH": "2023-11-21T04:00:00.999936",
								"MEAN_MOTION": 15.74201988,
								"ECCENTRICITY": 0.000221,
								"INCLINATION": 43.0013,
								"RA_OF_ASC_NODE": 180.8891,
								"ARG_OF_PERICENTER": 286.023,
								"MEAN_ANOMALY": 131.3205
							},
							"tleParameters": {
								"EPHEMERIS_TYPE": 0,
								"CLASSIFICATION_TYPE": "U",
								"NORAD_CAT_ID": 58246,
								"ELEMENT_SET_NO": 999,
								"REV_AT_EPOCH": 330,
								"BSTAR": -0.012384,
								"MEAN_MOTION_DOT": -0.0162979,
								"MEAN_MOTION_DDOT": 0
							}
						}
					}
				}
			},
			{
				"header": {
					"CREATION_DATE": "",
					"ORIGINATOR": ""
				},
				"body": {
					"segment": {
						"metadata": {
							"OBJECT_NAME": "STARLINK-30850",
							"OBJECT_ID": "2023-171T",
							"CENTER_NAME": "EARTH",
							"REF_FRAME": "TEME",
							"TIME_SYSTEM": "UTC",
							"MEAN_ELEMENT_THEORY": "SGP4"
						},
						"data": {
							"meanElements": {
								"EPOCH": "2023-11-21T04:00:00.999936",
								"MEAN_MOTION": 15.74037657,
								"ECCENTRICITY": 0.0001962,
								"INCLINATION": 43.0013,
								"RA_OF_ASC_NODE": 180.8905,
								"ARG_OF_PERICENTER": 258.7746,
								"MEAN_ANOMALY": 158.0457
							},
							"tleParameters": {
								"EPHEMERIS_TYPE": 0,
								"CLASSIFICATION_TYPE": "U",
								"NORAD_CAT_ID": 58247,
								"ELEMENT_SET_NO": 999,
								"REV_AT_EPOCH": 313,
								"BSTAR": -0.010855,
								"MEAN_MOTION_DOT": -0.01414394,
								"MEAN_MOTION_DDOT": 0
							}
						}
					}
				}
			},
			{
				"header": {
					"CREATION_DATE": "",
					"ORIGINATOR": ""
				},
				"body": {
					"segment": {
						"metadata": {
							"OBJECT_NAME": "STARLINK-30823",
							"OBJECT_ID": "2023-171U",
							"CENTER_NAME": "EARTH",
							"REF_FRAME": "TEME",
							"TIME_SYSTEM": "UTC",
							"MEAN_ELEMENT_THEORY": "SGP4"
						},
						"data": {
							"meanElements": {
								"EPOCH": "2023-11-21T04:00:00.999936",
								"MEAN_MOTION": 15.74028907,
								"ECCENTRICITY": 0.000188,
								"INCLINATION": 43.0012,
								"RA_OF_ASC_NODE": 180.8876,
								"ARG_OF_PERICENTER": 258.4934,
								"MEAN_ANOMALY": 159.585
							},
							"tleParameters": {
								"EPHEMERIS_TYPE": 0,
								"CLASSIFICATION_TYPE": "U",
								"NORAD_CAT_ID": 58248,
								"ELEMENT_SET_NO": 999,
								"REV_AT_EPOCH": 330,
								"BSTAR": -0.010853,
								"MEAN_MOTION_DOT": -0.01413633,
								"MEAN_MOTION_DDOT": 0
							}
						}
					}
				}
			},
			{
				"header": {
					"CREATION_DATE": "",
					"ORIGINATOR": ""
				},
				"body": {
					"segment": {
						"metadata": {
							"OBJECT_NAME": "STARLINK-30873",
							"OBJECT_ID": "2023-171V",
							"CENTER_NAME": "EARTH",
							"REF_FRAME": "TEME",
							"TIME_SYSTEM": "UTC",
							"MEAN_ELEMENT_THEORY": "SGP4"
						},
						"data": {
							"meanElements": {
								"EPOCH": "2023-11-21T04:00:00.999936",
								"MEAN_MOTION": 15.74054723,
								"ECCENTRICITY": 0.0001831,
								"INCLINATION": 43.0013,
								"RA_OF_ASC_NODE": 180.886,
								"ARG_OF_PERICENTER": 262.4094,
								"MEAN_ANOMALY": 156.2735
							},
							"tleParameters": {
								"EPHEMERIS_TYPE": 0,
								"CLASSIFICATION_TYPE": "U",
								"NORAD_CAT_ID": 58249,
								"ELEMENT_SET_NO": 999,
								"REV_AT_EPOCH": 330,
								"BSTAR": -0.011064,
								"MEAN_MOTION_DOT": -0.0143931,
								"MEAN_MOTION_DDOT": 0
							}
						}
					}
				}
			},
			{
				"header": {
					"CREATION_DATE": "",
					"ORIGINATOR": ""
				},
				"body": {
					"segment": {
						"metadata": {
							"OBJECT_NAME": "STARLINK-30808",
							"OBJECT_ID": "2023-171W",
							"CENTER_NAME": "EARTH",
							"REF_FRAME": "TEME",
							"TIME_SYSTEM": "UTC",
							"MEAN_ELEMENT_THEORY": "SGP4"
						},
						"data": {
							"meanElements": {
								"EPOCH": "2023-11-20T22:00:00.999936",
								"MEAN_MOTION": 15.75644832,
								"ECCENTRICITY": 0.0001701,
								"INCLINATION": 43.0023,
								"RA_OF_ASC_NODE": 182.2245,
								"ARG_OF_PERICENTER": 281.6071,
								"MEAN_ANOMALY": 229.1773
							},
							"tleParameters": {
								"EPHEMERIS_TYPE": 0,
								"CLASSIFICATION_TYPE": "U",
								"NORAD_CAT_ID": 58250,
								"ELEMENT_SET_NO": 999,
								"REV_AT_EPOCH": 327,
								"BSTAR": -0.0072269,
								"MEAN_MOTION_DOT": -0.01029186,
								"MEAN_MOTION_DDOT": 0
							}
						}
					}
				}
			}
		]
	}
}